$$SOE
2460721.500000000, A.D. 2025-Feb-15 00:00:00.0000, -2.093482645581724E+08, -2.543892023093334E+08, 2.801068308017462E+06,
2460728.500000000, A.D. 2025-Feb-22 00:00:00.0000, -1.981855813347839E+08, -2.594086170951808E+08, 3.291611245176926E+06,
2460735.500000000, A.D. 2025-Mar-01 00:00:00.0000, -1.867464698522922E+08, -2.640661453844086E+08, 3.777558840591773E+06,
2460742.500000000, A.D. 2025-Mar-08 00:00:00.0000, -1.750395300713276E+08, -2.683448807283201E+08, 4.258083795458943E+06,
2460749.500000000, A.D. 2025-Mar-15 00:00:00.0000, -1.630743577372125E+08, -2.722276465501238E+08, 4.732321205207378E+06,
2460756.500000000, A.D. 2025-Mar-22 00:00:00.0000, -1.508616188891687E+08, -2.756970359598413E+08, 5.199368131926730E+06,
2460763.500000000, A.D. 2025-Mar-29 00:00:00.0000, -1.384131252075914E+08, -2.787354623164817E+08, 5.658283096694097E+06,
2460770.500000000, A.D. 2025-Apr-05 00:00:00.0000, -1.257419092656859E+08, -2.813252183771794E+08, 6.108085769030571E+06,
2460777.500000000, A.D. 2025-Apr-12 00:00:00.0000, -1.128623008264799E+08, -2.834485449387312E+08, 6.547757095699668E+06,
2460784.500000000, A.D. 2025-Apr-19 00:00:00.0000, -9.979000338521929E+07, -2.850877108745015E+08, 6.976239877426773E+06,
2460791.500000000, A.D. 2025-Apr-26 00:00:00.0000, -8.654216947071552E+07, -2.862251057763318E+08, 7.392439821528181E+06,
2460798.500000000, A.D. 2025-May-03 00:00:00.0000, -7.313747312479165E+07, -2.868433461387799E+08, 7.795227136572808E+06,
2460805.500000000, A.D. 2025-May-10 00:00:00.0000, -5.959617779126664E+07, -2.869253959376858E+08, 8.183438747154191E+06,
2460812.500000000, A.D. 2025-May-17 00:00:00.0000, -4.594019754545964E+07, -2.864547023481804E+08, 8.555881205350906E+06,
2460819.500000000, A.D. 2025-May-24 00:00:00.0000, -3.219314914559784E+07, -2.854153471397281E+08, 8.911334361429572E+06,
2460826.500000000, A.D. 2025-May-31 00:00:00.0000, -1.838039182811604E+07, -2.837922136413658E+08, 9.248555860796601E+06,
2460833.500000000, A.D. 2025-Jun-07 00:00:00.0000, -4.529052300813566E+06, -2.815711679273462E+08, 9.566286678691834E+06,
2460840.500000000, A.D. 2025-Jun-14 00:00:00.0000, 9.331965886191312E+06, -2.787392542942489E+08, 9.863257925265253E+06,
2460847.500000000, A.D. 2025-Jun-21 00:00:00.0000, 2.317199317507226E+07, -2.752849071407261E+08, 1.013819860015720E+07,
2460854.500000000, A.D. 2025-Jun-28 00:00:00.0000, 3.695863164156872E+07, -2.711981756612642E+08, 1.038984419246310E+07,
2460861.500000000, A.D. 2025-Jul-05 00:00:00.0000, 5.065782139693656E+07, -2.664709566192011E+08, 1.061694645279631E+07,
2460868.500000000, A.D. 2025-Jul-12 00:00:00.0000, 6.423393788827407E+07, -2.610972326003125E+08, 1.081828435749710E+07,
2460875.500000000, A.D. 2025-Jul-19 00:00:00.0000, 7.764992329940385E+07, -2.550733120557615E+08, 1.099267613694175E+07,
2460882.500000000, A.D. 2025-Jul-26 00:00:00.0000, 9.086745475014347E+07, -2.483980660644414E+08, 1.113899223604944E+07,
2460889.500000000, A.D. 2025-Aug-02 00:00:00.0000, 1.038471510866117E+08, -2.410731558499671E+08, 1.125616904619545E+07,
2460896.500000000, A.D. 2025-Aug-09 00:00:00.0000, 1.165488190079987E+08, -2.331032444012051E+08, 1.134322319583587E+07,
2460903.500000000, A.D. 2025-Aug-16 00:00:00.0000, 1.289317380923865E+08, -2.244961850344330E+08, 1.139926612468028E+07,
2460910.500000000, A.D. 2025-Aug-23 00:00:00.0000, 1.409549830547848E+08, -2.152631793376732E+08, 1.142351860323222E+07,
2460917.500000000, A.D. 2025-Aug-30 00:00:00.0000, 1.525777799960287E+08, -2.054188962257339E+08, 1.141532486771237E+07,
2460924.500000000, A.D. 2025-Sep-06 00:00:00.0000, 1.637598899564423E+08, -1.949815438942144E+08, 1.137416618559922E+07,
2460931.500000000, A.D. 2025-Sep-13 00:00:00.0000, 1.744620111480849E+08, -1.839728907012233E+08, 1.129967338111331E+07,
2460938.500000000, A.D. 2025-Sep-20 00:00:00.0000, 1.846461946188619E+08, -1.724182313632322E+08, 1.119163746090133E+07,
2460945.500000000, A.D. 2025-Sep-27 00:00:00.0000, 1.942762645647267E+08, -1.603462917210760E+08, 1.105001809150148E+07,
2460952.500000000, A.D. 2025-Oct-04 00:00:00.0000, 2.033182304626261E+08, -1.477890698924581E+08, 1.087494979370652E+07,
2460959.500000000, A.D. 2025-Oct-11 00:00:00.0000, 2.117406793363389E+08, -1.347816153619226E+08, 1.066674551012958E+07,
2460966.500000000, A.D. 2025-Oct-18 00:00:00.0000, 2.195151371702538E+08, -1.213617492872694E+08, 1.042589728026333E+07,
2460973.500000000, A.D. 2025-Oct-25 00:00:00.0000, 2.266163889771225E+08, -1.075697314074032E+08, 1.015307389436230E+07,
2460980.500000000, A.D. 2025-Nov-01 00:00:00.0000, 2.330227481433653E+08, -9.344788115581168E+07, 9.849115518500533E+06,
2460987.500000000, A.D. 2025-Nov-08 00:00:00.0000, 2.387162674121543E+08, -7.904016253007248E+07, 9.515025394631032E+06,
2460994.500000000, A.D. 2025-Nov-15 00:00:00.0000, 2.436828861327570E+08, -6.439174373077250E+07, 9.151958815844776E+06,
2461001.500000000, A.D. 2025-Nov-22 00:00:00.0000, 2.479125110923319E+08, -4.954854316548516E+07, 8.761209673924733E+06,
2461008.500000000, A.D. 2025-Nov-29 00:00:00.0000, 2.513990302684222E+08, -3.455677274696710E+07, 8.344195088702199E+06,
2461015.500000000, A.D. 2025-Dec-06 00:00:00.0000, 2.541402592422004E+08, -1.946249035090124E+07, 7.902438782431236E+06,
2461022.500000000, A.D. 2025-Dec-13 00:00:00.0000, 2.561378249899196E+08, -4.311175621050578E+06, 7.437553376755335E+06,
2461029.500000000, A.D. 2025-Dec-20 00:00:00.0000, 2.573969967547969E+08, 1.085266249368381E+07, 6.951221873380429E+06,
2461036.500000000, A.D. 2025-Dec-27 00:00:00.0000, 2.579264706464302E+08, 2.598584139899838E+07, 6.445179112429418E+06,
2461043.500000000, A.D. 2026-Jan-03 00:00:00.0000, 2.577381152419159E+08, 4.104681737858188E+07, 5.921193738228483E+06,
2461050.500000000, A.D. 2026-Jan-10 00:00:00.0000, 2.568466875314916E+08, 5.599595060292072E+07, 5.381050997484002E+06,
2461057.500000000, A.D. 2026-Jan-17 00:00:00.0000, 2.552695286999807E+08, 7.079572079497944E+07, 4.826536664518017E+06,
2461064.500000000, A.D. 2026-Jan-24 00:00:00.0000, 2.530262486944240E+08, 8.541089363715097E+07, 4.259422338863671E+06,
2461071.500000000, A.D. 2026-Jan-31 00:00:00.0000, 2.501384077560331E+08, 9.980863953082684E+07, 3.681452289177105E+06,
2461078.500000000, A.D. 2026-Feb-07 00:00:00.0000, 2.466292021748426E+08, 1.139586075374621E+08, 3.094331939215012E+06,
2461085.500000000, A.D. 2026-Feb-14 00:00:00.0000, 2.425231606117243E+08, 1.278329583279308E+08, 2.499718012959905E+06,
2461092.500000000, A.D. 2026-Feb-21 00:00:00.0000, 2.378458562903234E+08, 1.414063612006335E+08, 1.899210334787749E+06,
2461099.500000000, A.D. 2026-Feb-28 00:00:00.0000, 2.326236377008458E+08, 1.546559611692979E+08, 1.294345416909076E+06,
2461106.500000000, A.D. 2026-Mar-07 00:00:00.0000, 2.268833783908450E+08, 1.675613191598392E+08, 6.865917702643648E+05,
2461113.500000000, A.D. 2026-Mar-14 00:00:00.0000, 2.206522502780569E+08, 1.801043278717813E+08, 7.734637126633525E+04,
2461120.500000000, A.D. 2026-Mar-21 00:00:00.0000, 2.139575230201705E+08, 1.922691108166957E+08, -5.320677850748450E+05,
2461127.500000000, A.D. 2026-Mar-28 00:00:00.0000, 2.068263874253104E+08, 2.040419098252048E+08, -1.140402926126257E+06,
2461134.500000000, A.D. 2026-Apr-04 00:00:00.0000, 1.992858016997111E+08, 2.154109639060404E+08, -1.746486708033681E+06,
2461141.500000000, A.D. 2026-Apr-11 00:00:00.0000, 1.913623597630733E+08, 2.263663824963071E+08, -2.349221584302425E+06,
2461148.500000000, A.D. 2026-Apr-18 00:00:00.0000, 1.830821804387801E+08, 2.369000160221742E+08, -2.947583486892149E+06,
2461155.500000000, A.D. 2026-Apr-25 00:00:00.0000, 1.744708160043332E+08, 2.470053262291033E+08, -3.540619950508758E+06,
2461162.500000000, A.D. 2026-May-02 00:00:00.0000, 1.655531784389566E+08, 2.566772582366135E+08, -4.127447803400025E+06,
2461169.500000000, A.D. 2026-May-09 00:00:00.0000, 1.563534817349051E+08, 2.659121158218379E+08, -4.707250547353819E+06,
2461176.500000000, A.D. 2026-May-16 00:00:00.0000, 1.468951988928368E+08, 2.747074412788235E+08, -5.279275542850599E+06,
2461183.500000000, A.D. 2026-May-23 00:00:00.0000, 1.372010319501154E+08, 2.830619017682926E+08, -5.842831000796646E+06,
2461190.500000000, A.D. 2026-May-30 00:00:00.0000, 1.272928913436734E+08, 2.909751830857870E+08, -6.397282631975278E+06,
2461197.500000000, A.D. 2026-Jun-06 00:00:00.0000, 1.171918827653278E+08, 2.984478879582362E+08, -6.942050247076392E+06,
2461204.500000000, A.D. 2026-Jun-13 00:00:00.0000, 1.069183037869169E+08, 3.054814392829352E+08, -7.476604673644885E+06,
2461211.500000000, A.D. 2026-Jun-20 00:00:00.0000, 9.649164850096512E+07, 3.120779912814410E+08, -8.000464743903518E+06,
2461218.500000000, A.D. 2026-Jun-27 00:00:00.0000, 8.593061734330732E+07, 3.182403481463246E+08, -8.513194255091518E+06,
2461225.500000000, A.D. 2026-Jul-04 00:00:00.0000, 7.525313108769982E+07, 3.239718892357838E+08, -9.014398988325015E+06,
2461232.500000000, A.D. 2026-Jul-11 00:00:00.0000, 6.447634837860313E+07, 3.292765004459812E+08, -9.503723837230504E+06,
2461239.500000000, A.D. 2026-Jul-18 00:00:00.0000, 5.361668612016147E+07, 3.341585114985620E+08, -9.980850065107897E+06,
2461246.500000000, A.D. 2026-Jul-25 00:00:00.0000, 4.268984207498090E+07, 3.386226388242122E+08, -1.044549270086764E+07,
2461253.500000000, A.D. 2026-Aug-01 00:00:00.0000, 3.171081914445057E+07, 3.426739336521963E+08, -1.089739808686821E+07,
2461260.500000000, A.D. 2026-Aug-08 00:00:00.0000, 2.069395105403891E+07, 3.463177349189494E+08, -1.133634160324863E+07,
2461267.500000000, A.D. 2026-Aug-15 00:00:00.0000, 9.652929442766540E+06, 3.495596270956860E+08, -1.176212556983039E+07,
2461274.500000000, A.D. 2026-Aug-22 00:00:00.0000, -1.399168750791714E+06, 3.524054038139793E+08, -1.217457715459311E+07,
2461281.500000000, A.D. 2026-Aug-29 00:00:00.0000, -1.244985617883567E+07, 3.548610355780958E+08, -1.257354618790741E+07,
2461288.500000000, A.D. 2026-Sep-05 00:00:00.0000, -2.348721035735832E+07, 3.569326383650756E+08, -1.295890330678931E+07,
$$EOE